0 IRIDIUM 43
1 25039U 97069A   13282.47022938  .00000375  00000-0  12698-3 0  5003
2 25039 086.3988 224.8061 0001894 102.1531 029.7981 14.34222457833285
0 IRIDIUM 43
1 25039U 97069A   13282.47022938  .00000375  00000-0  12698-3 0  5014
2 25039 086.3988 224.8061 0001894 102.1531 029.7981 14.34222457833285
0 IRIDIUM 43
1 25039U 97069A   13282.80465873  .00000330  00000-0  11070-3 0  5025
2 25039 086.3988 224.6664 0001891 102.3885 315.1964 14.34222235833336
0 IRIDIUM 43
1 25039U 97069A   13283.98871009  .00000372  00000-0  12572-3 0  5032
2 25039 086.3993 224.1718 0001937 101.7247 305.4608 14.34216521833500
0 IRIDIUM 43
1 25039U 97069A   13284.35903383  .00000348  00000-0  11734-3 0  5048
2 25039 086.3995 224.0171 0001915 102.4082 055.6149 14.34216764833553
0 IRIDIUM 43
1 25039U 97069A   13285.47113912  .00000347  00000-0  11693-3 0  5057
2 25039 086.3997 223.5526 0001912 102.9616 033.4321 14.34217714833718
0 IRIDIUM 43
1 25039U 97069A   13286.44817769  .00000349  00000-0  11756-3 0  5069
2 25039 086.3999 223.1444 0001912 103.5957 034.2386 14.34218142833851
0 IRIDIUM 43
1 25039U 97069A   13287.48935311  .00000383  00000-0  12958-3 0  5072
2 25039 086.4001 222.7097 0001922 104.0560 006.1622 14.34218784834003
0 IRIDIUM 43
1 25039U 97069A   13288.46575358  .00000544  00000-0  18710-3 0  5084
2 25039 086.4002 222.3019 0001942 104.3129 004.0592 14.34220247834145
0 IRIDIUM 43
1 25039U 97069A   13289.44772163  .00000429  00000-0  14605-3 0  5098
2 25039 086.4004 221.8918 0001943 104.6383 030.6195 14.34221642834284
0 IRIDIUM 43
1 25039U 97069A   13290.48985106  .00000493  00000-0  16907-3 0  5107
2 25039 086.4004 221.4567 0001947 105.0609 007.5161 14.34222445834435
0 IRIDIUM 43
1 25039U 97069A   13291.47184449  .00000454  00000-0  15501-3 0  5115
2 25039 086.4005 221.0468 0001960 105.5810 034.0197 14.34223005834578
0 IRIDIUM 43
1 25039U 97069A   13292.44789034  .00000474  00000-0  16207-3 0  5121
2 25039 086.4004 220.6393 0001969 105.8477 030.0906 14.34223834834710
0 IRIDIUM 43
1 25039U 97069A   13293.49031431  .00000516  00000-0  17700-3 0  5135
2 25039 086.4004 220.2042 0001970 106.1612 008.6255 14.34225138834867
0 IRIDIUM 43
1 25039U 97069A   13294.33448619  .00000521  00000-0  17878-3 0  5142
2 25039 086.4005 219.8518 0001978 106.2017 044.4657 14.34226287834981
0 IRIDIUM 43
1 25039U 97069A   13295.16845632  .00000523  00000-0  17976-3 0  5152
2 25039 086.4005 219.5037 0001986 106.4545 027.4573 14.34226815835101
0 IRIDIUM 43
1 25039U 97069A   13296.14522486  .00000514  00000-0  17629-3 0  5166
2 25039 086.4008 219.0958 0002008 106.7052 027.2540 14.34221611835249
